OBJECT_NAME,OBJECT_ID,EPOCH,MEAN_MOTION,ECCENTRICITY,INCLINATION,RA_OF_ASC_NODE,ARG_OF_PERICENTER,MEAN_ANOMALY,EPHEMERIS_TYPE,CLASSIFICATION_TYPE,NORAD_CAT_ID,ELEMENT_SET_NO,REV_AT_EPOCH,BSTAR,MEAN_MOTION_DOT,MEAN_MOTION_DDOT
OSCAR 7 (AO-7),1974-089B,2026-07-04T06:55:27.745248,12.53698407,.00126605,101.9900,198.7133,98.4849,273.4162,0,U,7530,999,36266,.19073987E-4,-.43E-6,0
PHASE 3B (AO-10),1983-058B,2026-07-01T10:49:12.358272,2.05870235,.60059739,25.9245,217.2087,119.5898,312.7847,0,U,14129,999,29578,0,-.48E-6,0
UOSAT 2 (UO-11),1984-021B,2026-07-04T03:15:03.023424,14.90828443,.00088776,97.8067,150.5219,121.8860,238.3223,0,U,14781,999,25965,.17327777E-3,.1651E-4,0
LUSAT (LO-19),1990-005G,2026-07-03T13:51:43.726752,14.34128153,.00120388,98.8845,206.8345,153.2825,206.8982,0,U,20442,999,90474,.64482585E-4,.134E-5,0
EYESAT A (AO-27),1993-061C,2026-07-03T15:24:05.062464,14.30946735,.00092992,98.6874,252.0488,57.1001,303.1075,0,U,22825,999,70935,.66110072E-4,.129E-5,0
ITAMSAT (IO-26),1993-061D,2026-07-04T02:31:59.177856,14.31374233,.00095697,98.6821,252.4316,40.3301,319.8590,0,U,22826,999,70973,.66196403E-4,.131E-5,0
RADIO ROSTO (RS15),1994-085A,2026-07-04T05:35:29.105664,11.27583518,.0156518,64.8176,275.6492,0.7279,359.3846,0,U,23439,999,29782,.54454141E-3,-.23E-6,0
JAS-2 (FO-29),1996-046B,2026-07-04T00:28:54.238944,13.53274954,.03507498,98.5226,31.5851,52.8786,310.3863,0,U,24278,999,47544,.3476321E-5,-.3E-6,0
TECHSAT 1B (GO-32),1998-043D,2026-07-04T06:34:25.476672,14.24431724,.00018334,99.0075,178.4639,132.1336,227.9998,0,U,25397,999,45376,.50222096E-4,.7E-6,0
ISS (ZARYA),1998-067A,2026-07-04T02:07:57.020160,15.48879284,.00067632,51.6303,216.4301,253.0749,106.9498,0,U,25544,999,57437,.14587488E-3,.7564E-4,0
PCSAT (NO-44),2001-043C,2026-07-03T18:46:46.787808,14.31961653,.00060157,67.0488,201.3486,265.7602,94.2812,0,U,26931,999,29282,.71144282E-4,.108E-5,0
SAUDISAT 1C (SO-50),2002-058C,2026-07-03T19:27:41.631264,14.83081688,.00748507,64.5520,77.5517,259.3699,99.8971,0,U,27607,999,26692,.14144784E-3,.1055E-4,0
CUTE-1 (CO-55),2003-031E,2026-07-04T05:56:57.059232,14.24346436,.00104958,98.6737,193.5921,131.0511,229.1577,0,U,27844,999,19410,.16569058E-3,.339E-5,0
CUBESAT XI-IV (CO-57),2003-031J,2026-07-03T23:07:50.367360,14.23629930,.00100479,98.6769,193.0109,149.1392,211.0379,0,U,27848,999,19376,.1438218E-3,.284E-5,0
MOZHAETS 4 (RS22),2003-042A,2026-07-04T08:04:00.228864,14.73496985,.00104095,98.3469,10.1792,208.9485,272.7335,0,U,27939,999,21807,.91759475E-4,.542E-5,0
CUBESAT XI-V,2005-043F,2026-07-04T04:26:34.447488,14.72679968,.00147858,98.3004,341.1656,147.6619,212.5497,0,U,28895,999,10425,.28127005E-3,.1743E-4,0
CUTE-1.7+APD II (CO-65),2008-021C,2026-07-04T05:14:22.345152,15.09621805,.00079593,97.8289,166.9933,343.0118,17.0843,0,U,32785,999,98776,.43804536E-3,.6983E-4,0
SEEDS II (CO-66),2008-021J,2026-07-03T10:53:24.291168,15.33316385,.00015908,97.7521,183.1342,184.9877,175.1349,0,U,32791,999,98978,.5788422E-3,.18577E-3,0
YUBILEINY (RS30),2008-025A,2026-07-04T05:46:00.981696,12.43180309,.0018501,82.5051,344.8301,274.5078,85.3888,0,U,32953,999,82181,.15242135E-3,.31E-6,0
KKS-1 (KISEKI),2009-002H,2026-07-04T06:11:18.235680,14.83168983,.00066355,98.1181,107.9705,228.4343,131.6302,0,U,33499,999,93872,.20292668E-3,.16E-4,0
SWISSCUBE,2009-051B,2026-07-04T04:54:22.403808,14.62515164,.00072032,98.4022,93.3885,149.3309,210.8314,0,U,35932,999,89164,.24944454E-3,.1216E-4,0
BEESAT-1,2009-051C,2026-07-04T00:25:02.099424,14.61748287,.00053974,98.3948,92.7981,160.6033,199.5374,0,U,35933,999,89164,.21141658E-3,.1005E-4,0
ITUPSAT1,2009-051E,2026-07-04T00:33:09.275328,14.60466234,.00072743,98.4031,91.9778,176.2481,183.8774,0,U,35935,999,89119,.19967095E-3,.919E-5,0
XIWANG-1 (HOPE-1),2009-072B,2026-07-04T06:25:27.906240,13.16438855,.00072347,100.4037,138.8279,190.0667,170.0302,0,U,36122,999,79525,-.68427574E-3,-.306E-5,0
O/OREOS (USA 219),2010-062C,2026-07-04T00:07:25.238208,14.93816217,.00132939,71.9706,42.2417,27.4238,332.7631,0,U,37224,999,11915,.25947043E-3,.2697E-4,0
JUGNU,2011-058B,2026-07-04T05:44:04.099776,14.13780966,.00183305,19.9588,204.8324,264.7151,174.5113,0,U,37839,999,76144,.72425564E-4,.406E-5,0
SRMSAT,2011-058D,2026-07-04T01:35:48.804576,14.11579192,.00118515,19.9730,317.3057,29.9608,142.1060,0,U,37841,999,76020,.7032809E-4,.394E-5,0
STRAND-1,2013-009E,2026-07-04T06:03:39.205440,14.37173910,.00087464,98.3929,5.0673,171.9744,188.1585,0,U,39090,999,69951,.1295826E-3,.343E-5,0
ZACUBE-1 (TSHEPISOSAT),2013-066B,2026-07-03T22:29:51.330624,15.01282961,.00431223,97.8036,147.3589,191.4127,168.6124,0,U,39417,999,68324,.30713201E-3,.3964E-4,0
GOMX-1,2013-066Q,2026-07-04T06:38:49.405344,14.69517039,.01292394,97.6468,24.6603,23.2162,337.4811,0,U,39430,999,67242,.25289913E-3,.1654E-4,0
